{
  "norad_id": 64544,
  "name": "SKYBEE-A02",
  "history": [
    {
      "epoch": "2026-03-28T21:08:00.761568Z",
      "apogee_km": 509.2186228787741,
      "perigee_km": 504.63069319232545,
      "latitude_deg": -3.883450250202954e-06,
      "longitude_deg": 60.239467539331464,
      "height_km": 509.7031565238462,
      "semi_major_axis_km": 6885.06165803555,
      "eccentricity": 0.00033318,
      "inclination_deg": 97.4622,
      "raan_deg": 203.5373,
      "arg_perigee_deg": 82.3843,
      "mean_anomaly_deg": 277.777,
      "mean_motion_rev_day": 15.19641031
    },
    {
      "epoch": "2026-03-29T05:02:06.635328Z",
      "apogee_km": 509.2028937426958,
      "perigee_km": 504.6215819798226,
      "latitude_deg": -7.864518600525192e-05,
      "longitude_deg": -58.284005140905926,
      "height_km": 509.6612979382656,
      "semi_major_axis_km": 6885.049237861259,
      "eccentricity": 0.0003327,
      "inclination_deg": 97.4623,
      "raan_deg": 203.8628,
      "arg_perigee_deg": 81.6289,
      "mean_anomaly_deg": 278.5322,
      "mean_motion_rev_day": 15.19645143
    },
    {
      "epoch": "2026-03-30T04:44:23.922240Z",
      "apogee_km": 509.1495047241169,
      "perigee_km": 504.6219137905091,
      "latitude_deg": -3.858202229812809e-05,
      "longitude_deg": -53.85306015191357,
      "height_km": 509.5666761421048,
      "semi_major_axis_km": 6885.022709257313,
      "eccentricity": 0.0003288,
      "inclination_deg": 97.4626,
      "raan_deg": 204.8393,
      "arg_perigee_deg": 79.7799,
      "mean_anomaly_deg": 280.3806,
      "mean_motion_rev_day": 15.19653926
    },
    {
      "epoch": "2026-03-30T06:19:13.053792Z",
      "apogee_km": 509.14580077057417,
      "perigee_km": 504.62151599553636,
      "latitude_deg": 1.0531172516638839e-05,
      "longitude_deg": -77.55758247660975,
      "height_km": 509.55766188908854,
      "semi_major_axis_km": 6885.020658383055,
      "eccentricity": 0.00032856,
      "inclination_deg": 97.4626,
      "raan_deg": 204.9044,
      "arg_perigee_deg": 79.5931,
      "mean_anomaly_deg": 280.5674,
      "mean_motion_rev_day": 15.19654605
    },
    {
      "epoch": "2026-03-30T09:28:51.306528Z",
      "apogee_km": 509.13755246514484,
      "perigee_km": 504.62043117323174,
      "latitude_deg": 1.0825986049774178e-05,
      "longitude_deg": -124.96657105047517,
      "height_km": 509.5403451411325,
      "semi_major_axis_km": 6885.015991819188,
      "eccentricity": 0.00032804,
      "inclination_deg": 97.4627,
      "raan_deg": 205.0346,
      "arg_perigee_deg": 79.2496,
      "mean_anomaly_deg": 280.9108,
      "mean_motion_rev_day": 15.1965615
    },
    {
      "epoch": "2026-03-30T22:07:24.217248Z",
      "apogee_km": 509.12552213768504,
      "perigee_km": 504.60083771943937,
      "latitude_deg": -3.11914174335054e-05,
      "longitude_deg": 45.39789902472908,
      "height_km": 509.48778622176485,
      "semi_major_axis_km": 6885.000179928562,
      "eccentricity": 0.00032859,
      "inclination_deg": 97.4628,
      "raan_deg": 205.5554,
      "arg_perigee_deg": 78.3187,
      "mean_anomaly_deg": 281.8416,
      "mean_motion_rev_day": 15.19661385
    },
    {
      "epoch": "2026-03-31T20:14:51.480960Z",
      "apogee_km": 509.07831913621885,
      "perigee_km": 504.6003305345457,
      "latitude_deg": -5.03564759576552e-06,
      "longitude_deg": 73.53718784473578,
      "height_km": 509.4027747354289,
      "semi_major_axis_km": 6884.976324835382,
      "eccentricity": 0.0003252,
      "inclination_deg": 97.4631,
      "raan_deg": 206.4669,
      "arg_perigee_deg": 76.5891,
      "mean_anomaly_deg": 283.5706,
      "mean_motion_rev_day": 15.19669283
    },
    {
      "epoch": "2026-04-01T19:57:07.373376Z",
      "apogee_km": 509.038534588698,
      "perigee_km": 504.5963619786653,
      "latitude_deg": 8.076722961729293e-06,
      "longitude_deg": 77.97406326704665,
      "height_km": 509.3099564411448,
      "semi_major_axis_km": 6884.954448283681,
      "eccentricity": 0.0003226,
      "inclination_deg": 97.4634,
      "raan_deg": 207.4435,
      "arg_perigee_deg": 74.5866,
      "mean_anomaly_deg": 285.5725,
      "mean_motion_rev_day": 15.19676526
    }
  ]
}